NORAD_CAT_ID,OBJECT_NAME,OBJECT_TYPE,EPOCH,MEAN_MOTION,ECCENTRICITY,INCLINATION,RA_OF_ASC_NODE,ARG_OF_PERICENTER,MEAN_ANOMALY,BSTAR,MEAN_MOTION_DOT,MEAN_MOTION_DDOT,TLE_LINE0,TLE_LINE1,TLE_LINE2,SEMIMAJOR_AXIS,PERIOD,APOGEE,PERIGEE,DECAYED
49160.0,STARLINK-3095,PAYLOAD,2023-01-21 03:32:03,14.98354091,0.0002431,70.0041,297.7344,268.1303,91.9578,0.0017781,0.000212,0.0,0 STARLINK-3095,1 49160U 21082AG  23021.14726331  .00021200  00000-0  17781-2 0  9999,2 49160  70.0041 297.7344 0002431 268.1303  91.9578 14.98354091 75761,6950.118,96.105,573.673,570.294,0.0
49160.0,STARLINK-3095,PAYLOAD,2023-01-21 11:32:43,14.98351365,0.0002457,70.0034,296.8919,268.6269,91.4609,0.0010301,0.00012226,0.0,0 STARLINK-3095,1 49160U 21082AG  23021.48105990  .00012226  00000-0  10301-2 0  9997,2 49160  70.0034 296.8919 0002457 268.6269  91.4609 14.98351365 75812,6950.127,96.106,573.6990000000001,570.284,0.0
49160.0,STARLINK-3095,PAYLOAD,2023-01-21 21:09:31,14.98336866,0.0002913,70.00399999999999,295.8842,263.0493,97.0335,8.661e-05,9.41e-06,0.0,0 STARLINK-3095,1 49160U 21082AG  23021.88161932  .00000941  00000-0  86610-4 0  9998,2 49160  70.0040 295.8842 0002913 263.0493  97.0335 14.98336866 75871,6950.172,96.107,574.061,570.012,0.0
49160.0,STARLINK-3095,PAYLOAD,2023-01-23 00:23:49,14.98321643,0.0002978,70.002,293.021,270.6553,89.4265,4.2246e-06,-4.3e-07,0.0,0 STARLINK-3095,1 49160U 21082AG  23023.01654635 -.00000043  00000-0  42246-5 0  9994,2 49160  70.0020 293.0210 0002978 270.6553  89.4265 14.98321643 76044,6950.219,96.108,574.154,570.014,0.0
49160.0,STARLINK-3095,PAYLOAD,2023-01-23 05:12:13,14.98333292,0.0003073,70.0017,292.5154,269.7512,90.3295,0.00052013,6.119e-05,0.0,0 STARLINK-3095,1 49160U 21082AG  23023.21682364  .00006119  00000-0  52013-3 0  9996,2 49160  70.0017 292.5154 0003073 269.7512  90.3295 14.98333292 76072,6950.183000000001,96.107,574.184,569.9119999999999,0.0
49160.0,STARLINK-3095,PAYLOAD,2023-01-23 19:37:26,14.98329698,0.0002881,70.0016,291.0001,270.2072,89.8757,0.00039028,4.567e-05,0.0,0 STARLINK-3095,1 49160U 21082AG  23023.81766708  .00004567  00000-0  39028-3 0  9993,2 49160  70.0016 291.0001 0002881 270.2072  89.8757 14.98329698 76161,6950.194,96.107,574.061,570.056,0.0
49160.0,STARLINK-3095,PAYLOAD,2023-01-24 03:38:06,14.98341375,0.0002766,70.0019,290.1589,271.7493,88.3349,0.00061136,7.211e-05,0.0,0 STARLINK-3095,1 49160U 21082AG  23024.15146380  .00007211  00000-0  61136-3 0  9993,2 49160  70.0019 290.1589 0002766 271.7493  88.3349 14.98341375 76213,6950.158,96.106,573.945,570.1,0.0
49160.0,STARLINK-3095,PAYLOAD,2023-01-24 19:39:27,14.98335117,0.0002539,70.0024,288.478,281.8846,78.2028,0.00028699,3.333e-05,0.0,0 STARLINK-3095,1 49160U 21082AG  23024.81906594  .00003333  00000-0  28699-3 0  9995,2 49160  70.0024 288.4780 0002539 281.8846  78.2028 14.98335117 76314,6950.177,96.107,573.807,570.2769999999999,0.0
49160.0,STARLINK-3095,PAYLOAD,2023-01-25 10:04:39,14.98333513,0.0002489,70.0022,286.9601,271.244,88.8434,3.5641e-05,3.32e-06,0.0,0 STARLINK-3095,1 49160U 21082AG  23025.41990393  .00000332  00000-0  35641-4 0  9994,2 49160  70.0022 286.9601 0002489 271.2440  88.8434 14.98333513 76398,6950.182,96.107,573.7769999999999,570.317,0.0
49160.0,STARLINK-3095,PAYLOAD,2023-01-25 19:41:28,14.98333206,0.0002531,70.0019,285.95,272.5763,87.5107,2.8807e-06,-5.9e-07,0.0,0 STARLINK-3095,1 49160U 21082AG  23025.82046307 -.00000059  00000-0  28807-5 0  9990,2 49160  70.0019 285.9500 0002531 272.5763  87.5107 14.98333206 76461,6950.183000000001,96.107,573.807,570.289,0.0
49160.0,STARLINK-3095,PAYLOAD,2023-01-26 02:06:00,14.98335085,0.0002645,70.0008,285.2768,271.7408,88.3448,7.299699999999999e-05,7.78e-06,0.0,0 STARLINK-3095,1 49160U 21082AG  23026.08750355  .00000778  00000-0  72997-4 0  9999,2 49160  70.0008 285.2768 0002645 271.7408  88.3448 14.98335085 76498,6950.177,96.107,573.88,570.2040000000001,0.0
49160.0,STARLINK-3095,PAYLOAD,2023-01-26 19:43:27,14.98353971,0.0002759,69.9999,283.4259,267.897,92.1873,0.00030486,3.549e-05,0.0,0 STARLINK-3095,1 49160U 21082AG  23026.82184182  .00003549  00000-0  30486-3 0  9995,2 49160  69.9999 283.4259 0002759 267.8970  92.1873 14.98353971 76618,6950.119000000001,96.105,573.901,570.066,0.0
49160.0,STARLINK-3095,PAYLOAD,2023-01-27 03:44:07,14.98366674,0.0002669,70.0011,282.5843,269.1627,90.9227,0.00071617,8.471e-05,0.0,0 STARLINK-3095,1 49160U 21082AG  23027.15563834  .00008471  00000-0  71617-3 0  9997,2 49160  70.0011 282.5843 0002669 269.1627  90.9227 14.98366674 76656,6950.079000000001,96.105,573.799,570.09,0.0
49160.0,STARLINK-3095,PAYLOAD,2023-01-27 19:45:29,14.98323883,0.0002621,70.0005,280.901,271.3024,88.7835,-0.00028579,-3.501e-05,0.0,0 STARLINK-3095,1 49160U 21082AG  23027.82325499 -.00003501  00000-0 -28579-3 0  9994,2 49160  70.0005 280.9010 0002621 271.3024  88.7835 14.98323883 76768,6950.212,96.107,573.898,570.255,0.0
49160.0,STARLINK-3095,PAYLOAD,2023-01-27 21:21:37,14.98321431,0.0002984,70.0005,280.7327,274.9852,85.0966,-0.00044014,-5.339e-05,0.0,0 STARLINK-3095,1 49160U 21082AG  23027.89001452 -.00005339  00000-0 -44014-3 0  9994,2 49160  70.0005 280.7327 0002984 274.9852  85.0966 14.98321431 76769,6950.219,96.108,574.158,570.01,0.0
49160.0,STARLINK-3095,PAYLOAD,2023-01-28 02:10:01,14.98310074,0.0003113,70.0005,280.2275,281.4088,78.6722,-0.00012856,-1.626e-05,0.0,0 STARLINK-3095,1 49160U 21082AG  23028.09029787 -.00001626  00000-0 -12856-3 0  9992,2 49160  70.0005 280.2275 0003113 281.4088  78.6722 14.98310074 76809,6950.255,96.108,574.283,569.956,0.0
49160.0,STARLINK-3095,PAYLOAD,2023-01-28 21:23:39,14.98309603,0.0002926,70.0009,278.2073,280.3595,79.7234,0.00057127,6.726e-05,0.0,0 STARLINK-3095,1 49160U 21082AG  23028.89143452  .00006726  00000-0  57127-3 0  9990,2 49160  70.0009 278.2073 0002926 280.3595  79.7234 14.98309603 76916,6950.256,96.108,574.155,570.087,0.0
49160.0,STARLINK-3095,PAYLOAD,2023-01-29 02:12:04,14.98316846,0.000285,70.0008,277.7022,280.6528,79.431,0.0010974,0.00013021,0.0,0 STARLINK-3095,1 49160U 21082AG  23029.09171757  .00013021  00000-0  10974-2 0  9996,2 49160  70.0008 277.7022 0002850 280.6528  79.4310 14.98316846 76951,6950.234,96.108,574.079,570.118,0.0
49160.0,STARLINK-3095,PAYLOAD,2023-01-29 23:01:49,14.98335146,0.0002925,70.001,275.5142,281.1012,78.9819,0.00083914,9.935e-05,0.0,0 STARLINK-3095,1 49160U 21082AG  23029.95959873  .00009935  00000-0  83914-3 0  9998,2 49160  70.0010 275.5142 0002925 281.1012  78.9819 14.98335146 77076,6950.177,96.107,574.075,570.009,0.0
49160.0,STARLINK-3095,PAYLOAD,2023-01-30 02:14:05,14.98338388,0.00029,70.0009,275.1774,281.0719,79.0114,0.00084637,0.00010022,0.0,0 STARLINK-3095,1 49160U 21082AG  23030.09311798  .00010022  00000-0  84637-3 0  9995,2 49160  70.0009 275.1774 0002900 281.0719  79.0114 14.98338388 77102,6950.167,96.106,574.048,570.016,0.0
49160.0,STARLINK-3095,PAYLOAD,2023-01-30 21:27:41,14.98352368,0.0002893,70.001,273.1576,281.4712,78.6122,0.00074917,8.862e-05,0.0,0 STARLINK-3095,1 49160U 21082AG  23030.89422942  .00008862  00000-0  74917-3 0  9996,2 49160  70.0010 273.1576 0002893 281.4712  78.6122 14.98352368 77210,6950.124,96.106,573.999,569.978,0.0
49160.0,STARLINK-3095,PAYLOAD,2023-01-31 02:16:05,14.98357914,0.0002883,70.001,272.6525,281.6213,78.4622,0.00084135,9.967e-05,0.0,0 STARLINK-3095,1 49160U 21082AG  23031.09450589  .00009967  00000-0  84135-3 0  9997,2 49160  70.0010 272.6525 0002883 281.6213  78.4622 14.98357914 77254,6950.107,96.105,573.975,569.968,0.0
49160.0,STARLINK-3095,PAYLOAD,2023-02-01 02:18:05,14.98350592,0.0002264,70.0018,270.1294,277.3069,82.7832,0.00049304,5.798e-05,0.0,0 STARLINK-3095,1 49160U 21082AG  23032.09589761  .00005798  00000-0  49304-3 0  9990,2 49160  70.0018 270.1294 0002264 277.3069  82.7832 14.98350592 77405,6950.129,96.106,573.568,570.421,0.0
49160.0,STARLINK-3095,PAYLOAD,2023-02-02 02:20:06,14.9833815,0.0002812,69.9995,267.6028,279.7143,80.3698,-8.0333e-05,-1.052e-05,0.0,0 STARLINK-3095,1 49160U 21082AG  23033.09729484 -.00001052  00000-0 -80333-4 0  9998,2 49160  69.9995 267.6028 0002812 279.7143  80.3698 14.98338150 77556,6950.168,96.106,573.987,570.078,0.0
49160.0,STARLINK-3095,PAYLOAD,2023-02-03 10:22:47,14.98329195,0.0002648,69.9971,264.236,275.8911,84.1946,5.8543e-05,6.06e-06,0.0,0 STARLINK-3095,1 49160U 21082AG  23034.43249839  .00000606  00000-0  58543-4 0  9998,2 49160  69.9971 264.2360 0002648 275.8911  84.1946 14.98329195 77758,6950.195,96.107,573.901,570.22,0.0
49160.0,STARLINK-3095,PAYLOAD,2023-02-03 13:35:04,14.98326038,0.000273,69.9982,263.8994,276.352,83.7328,1.5081e-05,8.7e-07,0.0,0 STARLINK-3095,1 49160U 21082AG  23034.56602092  .00000087  00000-0  15081-4 0  9999,2 49160  69.9982 263.8994 0002730 276.3520  83.7328 14.98326038 77765,6950.205,96.107,573.968,570.173,0.0
49160.0,STARLINK-3095,PAYLOAD,2023-02-03 18:23:28,14.98326366,0.0002714,69.9983,263.3944,275.8315,84.2534,2.1686e-05,1.66e-06,0.0,0 STARLINK-3095,1 49160U 21082AG  23034.76630066  .00000166  00000-0  21686-4 0  9999,2 49160  69.9983 263.3944 0002714 275.8315  84.2534 14.98326366 77796,6950.204,96.107,573.955,570.183,0.0
49160.0,STARLINK-3095,PAYLOAD,2023-02-04 08:48:40,14.98333277,0.0002749,69.998,261.8791,274.6359,85.4486,7.8689e-05,8.46e-06,0.0,0 STARLINK-3095,1 49160U 21082AG  23035.36713513  .00000846  00000-0  78689-4 0  9995,2 49160  69.9980 261.8791 0002749 274.6359  85.4486 14.98333277 77887,6950.183,96.107,573.958,570.137,0.0
49160.0,STARLINK-3095,PAYLOAD,2023-02-04 20:01:36,14.98337097,0.000272,69.9981,260.7008,274.612,85.4728,0.00015106,1.71e-05,0.0,0 STARLINK-3095,1 49160U 21082AG  23035.83445088  .00001710  00000-0  15106-3 0  9991,2 49160  69.9981 260.7008 0002720 274.6120  85.4728 14.98337097 77964,6950.171,96.107,573.926,570.145,0.0
